[{"OBJECT_NAME":"SPIP","OBJECT_ID":"2023-174AU","EPOCH":"2026-03-09T22:52:46.383168","MEAN_MOTION":15.26695413,"ECCENTRICITY":0.00100427,"INCLINATION":97.3901,"RA_OF_ASC_NODE":146.4534,"ARG_OF_PERICENTER":168.1112,"MEAN_ANOMALY":192.0366,"EPHEMERIS_TYPE":0,"CLASSIFICATION_TYPE":"U","NORAD_CAT_ID":58298,"ELEMENT_SET_NO":999,"REV_AT_EPOCH":12963,"BSTAR":0.00025731582,"MEAN_MOTION_DOT":6.692e-5,"MEAN_MOTION_DDOT":0},{"OBJECT_NAME":"STARLINK-31455","OBJECT_ID":"2024-056P","EPOCH":"2026-03-09T12:13:45.362784","MEAN_MOTION":15.27582857,"ECCENTRICITY":0.0001321,"INCLINATION":43.002,"RA_OF_ASC_NODE":228.5385,"ARG_OF_PERICENTER":268.2545,"MEAN_ANOMALY":91.8155,"EPHEMERIS_TYPE":0,"CLASSIFICATION_TYPE":"U","NORAD_CAT_ID":59309,"ELEMENT_SET_NO":999,"REV_AT_EPOCH":11116,"BSTAR":7.1857752e-5,"MEAN_MOTION_DOT":1.716e-5,"MEAN_MOTION_DDOT":0}]
